{
  "type": "FeatureCollection",
  "features": [
    {
      "type": "Feature",
      "properties": {
        "norad_id": 28054,
        "name": "DMSP 5D-3 F16 (USA 172)",
        "group": "weather",
        "lat": -40.008359347209044,
        "lon": 5.368735455566135,
        "alt_km": 846.1525233107541,
        "timestamp": "2025-12-06T07:31:39.887448+00:00",
        "meta_object_name": "DMSP 5D-3 F16 (USA 172)",
        "meta_object_id": "2003-048A",
        "meta_epoch": "2025-12-05T08:00:07.264224",
        "meta_mean_motion": 14.1442012,
        "meta_eccentricity": 0.00068061,
        "meta_inclination": 99.0051,
        "meta_ra_of_asc_node": 356.732,
        "meta_arg_of_pericenter": 343.5549,
        "meta_mean_anomaly": 27.4387,
        "meta_ephemeris_type": 0,
        "meta_classification_type": "U",
        "meta_norad_cat_id": 28054,
        "meta_element_set_no": 999,
        "meta_rev_at_epoch": 14208,
        "meta_bstar": 0.00016568072,
        "meta_mean_motion_dot": 2.72e-06,
        "meta_mean_motion_ddot": 0,
        "tle_line1": "1 28054U 03048A   25339.33341741  .00000272  00000+0  16568-3 0  9991",
        "tle_line2": "2 28054  99.0051 356.7320 0006806 343.5549  27.4387 14.14420120142089"
      },
      "geometry": {
        "type": "Point",
        "coordinates": [
          5.368735455566135,
          -40.008359347209044
        ]
      }
    },
    {
      "type": "Feature",
      "properties": {
        "norad_id": 28912,
        "name": "METEOSAT-9 (MSG-2)",
        "group": "weather",
        "lat": 0.31520363923023087,
        "lon": -126.10287483038928,
        "alt_km": 35768.94391595123,
        "timestamp": "2025-12-06T07:31:39.887496+00:00",
        "meta_object_name": "METEOSAT-9 (MSG-2)",
        "meta_object_id": "2005-049B",
        "meta_epoch": "2025-12-04T20:47:32.232192",
        "meta_mean_motion": 1.00272145,
        "meta_eccentricity": 0.0004026,
        "meta_inclination": 8.9208,
        "meta_ra_of_asc_node": 56.0475,
        "meta_arg_of_pericenter": 186.7216,
        "meta_mean_anomaly": 188.6483,
        "meta_ephemeris_type": 0,
        "meta_classification_type": "U",
        "meta_norad_cat_id": 28912,
        "meta_element_set_no": 999,
        "meta_rev_at_epoch": 505,
        "meta_bstar": 0,
        "meta_mean_motion_dot": 1.32e-06,
        "meta_mean_motion_ddot": 0,
        "tle_line1": "1 28912U 05049B   25338.86634528  .00000132  00000+0  00000+0 0  9997",
        "tle_line2": "2 28912   8.9208  56.0475 0004026 186.7216 188.6483  1.00272145  5051"
      },
      "geometry": {
        "type": "Point",
        "coordinates": [
          -126.10287483038928,
          0.31520363923023087
        ]
      }
    },
    {
      "type": "Feature",
      "properties": {
        "norad_id": 29522,
        "name": "DMSP 5D-3 F17 (USA 191)",
        "group": "weather",
        "lat": -67.00846966127544,
        "lon": 144.58089554836224,
        "alt_km": 843.1869341079018,
        "timestamp": "2025-12-06T07:31:39.887513+00:00",
        "meta_object_name": "DMSP 5D-3 F17 (USA 191)",
        "meta_object_id": "2006-050A",
        "meta_epoch": "2025-12-05T06:35:43.920096",
        "meta_mean_motion": 14.14914617,
        "meta_eccentricity": 0.00091969,
        "meta_inclination": 98.7393,
        "meta_ra_of_asc_node": 344.8193,
        "meta_arg_of_pericenter": 248.0865,
        "meta_mean_anomaly": 111.9332,
        "meta_ephemeris_type": 0,
        "meta_classification_type": "U",
        "meta_norad_cat_id": 29522,
        "meta_element_set_no": 999,
        "meta_rev_at_epoch": 98499,
        "meta_bstar": 0.00019476293,
        "meta_mean_motion_dot": 3.33e-06,
        "meta_mean_motion_ddot": 0,
        "tle_line1": "1 29522U 06050A   25339.27481389  .00000333  00000+0  19476-3 0  9993",
        "tle_line2": "2 29522  98.7393 344.8193 0009196 248.0865 111.9332 14.14914617984998"
      },
      "geometry": {
        "type": "Point",
        "coordinates": [
          144.58089554836224,
          -67.00846966127544
        ]
      }
    },
    {
      "type": "Feature",
      "properties": {
        "norad_id": 32958,
        "name": "FENGYUN 3A",
        "group": "weather",
        "lat": -36.011585206886856,
        "lon": 93.60938588877471,
        "alt_km": 835.688630174398,
        "timestamp": "2025-12-06T07:31:39.887527+00:00",
        "meta_object_name": "FENGYUN 3A",
        "meta_object_id": "2008-026A",
        "meta_epoch": "2025-12-05T06:49:38.493984",
        "meta_mean_motion": 14.19510918,
        "meta_eccentricity": 0.00082586,
        "meta_inclination": 98.6684,
        "meta_ra_of_asc_node": 278.9685,
        "meta_arg_of_pericenter": 333.4287,
        "meta_mean_anomaly": 26.6466,
        "meta_ephemeris_type": 0,
        "meta_classification_type": "U",
        "meta_norad_cat_id": 32958,
        "meta_element_set_no": 999,
        "meta_rev_at_epoch": 90789,
        "meta_bstar": 0.00013494463,
        "meta_mean_motion_dot": 2.41e-06,
        "meta_mean_motion_ddot": 0,
        "tle_line1": "1 32958U 08026A   25339.28447331  .00000241  00000+0  13494-3 0  9997",
        "tle_line2": "2 32958  98.6684 278.9685 0008258 333.4287  26.6466 14.19510918907890"
      },
      "geometry": {
        "type": "Point",
        "coordinates": [
          93.60938588877471,
          -36.011585206886856
        ]
      }
    },
    {
      "type": "Feature",
      "properties": {
        "norad_id": 35491,
        "name": "GOES 14",
        "group": "weather",
        "lat": -0.0885645673158365,
        "lon": 79.92274825365322,
        "alt_km": 35802.29404677198,
        "timestamp": "2025-12-06T07:31:39.887542+00:00",
        "meta_object_name": "GOES 14",
        "meta_object_id": "2009-033A",
        "meta_epoch": "2025-12-05T04:34:38.633952",
        "meta_mean_motion": 1.00272745,
        "meta_eccentricity": 0.00042006,
        "meta_inclination": 1.1784,
        "meta_ra_of_asc_node": 85.4964,
        "meta_arg_of_pericenter": 152.1383,
        "meta_mean_anomaly": 156.9502,
        "meta_ephemeris_type": 0,
        "meta_classification_type": "U",
        "meta_norad_cat_id": 35491,
        "meta_element_set_no": 999,
        "meta_rev_at_epoch": 464,
        "meta_bstar": 0,
        "meta_mean_motion_dot": -5.6e-07,
        "meta_mean_motion_ddot": 0,
        "tle_line1": "1 35491U 09033A   25339.19072493 -.00000056  00000+0  00000+0 0  9994",
        "tle_line2": "2 35491   1.1784  85.4964 0004200 152.1383 156.9502  1.00272745  4640"
      },
      "geometry": {
        "type": "Point",
        "coordinates": [
          79.92274825365322,
          -0.0885645673158365
        ]
      }
    },
    {
      "type": "Feature",
      "properties": {
        "norad_id": 35951,
        "name": "DMSP 5D-3 F18 (USA 210)",
        "group": "weather",
        "lat": 59.25179678289961,
        "lon": 151.9873313508252,
        "alt_km": 830.6611048649811,
        "timestamp": "2025-12-06T07:31:39.887555+00:00",
        "meta_object_name": "DMSP 5D-3 F18 (USA 210)",
        "meta_object_id": "2009-057A",
        "meta_epoch": "2025-12-05T05:30:20.757888",
        "meta_mean_motion": 14.14762351,
        "meta_eccentricity": 0.00121204,
        "meta_inclination": 98.8825,
        "meta_ra_of_asc_node": 315.6681,
        "meta_arg_of_pericenter": 82.2733,
        "meta_mean_anomaly": 277.9816,
        "meta_ephemeris_type": 0,
        "meta_classification_type": "U",
        "meta_norad_cat_id": 35951,
        "meta_element_set_no": 999,
        "meta_rev_at_epoch": 83216,
        "meta_bstar": 0.000239442,
        "meta_mean_motion_dot": 4.17e-06,
        "meta_mean_motion_ddot": 0,
        "tle_line1": "1 35951U 09057A   25339.22940692  .00000417  00000+0  23944-3 0  9996",
        "tle_line2": "2 35951  98.8825 315.6681 0012120  82.2733 277.9816 14.14762351832160"
      },
      "geometry": {
        "type": "Point",
        "coordinates": [
          151.9873313508252,
          59.25179678289961
        ]
      }
    },
    {
      "type": "Feature",
      "properties": {
        "norad_id": 36411,
        "name": "EWS-G2 (GOES 15)",
        "group": "weather",
        "lat": 0.1970509493072603,
        "lon": -110.27853999138127,
        "alt_km": 35761.6854076712,
        "timestamp": "2025-12-06T07:31:39.887568+00:00",
        "meta_object_name": "EWS-G2 (GOES 15)",
        "meta_object_id": "2010-008A",
        "meta_epoch": "2025-12-04T20:52:01.801056",
        "meta_mean_motion": 1.00268004,
        "meta_eccentricity": 0.0006023,
        "meta_inclination": 0.7932,
        "meta_ra_of_asc_node": 86.0482,
        "meta_arg_of_pericenter": 170.8261,
        "meta_mean_anomaly": 191.5518,
        "meta_ephemeris_type": 0,
        "meta_classification_type": "U",
        "meta_norad_cat_id": 36411,
        "meta_element_set_no": 999,
        "meta_rev_at_epoch": 5769,
        "meta_bstar": 0,
        "meta_mean_motion_dot": 5.1e-07,
        "meta_mean_motion_ddot": 0,
        "tle_line1": "1 36411U 10008A   25338.86946529  .00000051  00000+0  00000+0 0  9998",
        "tle_line2": "2 36411   0.7932  86.0482 0006023 170.8261 191.5518  1.00268004 57690"
      },
      "geometry": {
        "type": "Point",
        "coordinates": [
          -110.27853999138127,
          0.1970509493072603
        ]
      }
    }
  ]
}